[
    {
        "Altitude(m)": 605470.799132008,
        "Argument of Periapsis(deg)": 0.0,
        "Eccentricity": 0.0,
        "Inclination(deg)": 60.0,
        "Latitude(deg)": 27.9882358038787,
        "Longitude(deg)": 97.2629417297217,
        "Mean Anomaly(deg)": 147.2727,
        "RAAN(deg)": 35.0,
        "Satellite Name": "Test1 163",
        "Satellite Number": 163,
        "Semi-Major Axis(m)": 6980739.136638005,
        "Time(s)": 0
    },
    {
        "Altitude(m)": 605395.8369217985,
        "Argument of Periapsis(deg)": 0.00010418945913296404,
        "Eccentricity": 0.0,
        "Inclination(deg)": 60.0,
        "Latitude(deg)": 27.47392656482306,
        "Longitude(deg)": 97.61612971690637,
        "Mean Anomaly(deg)": 147.8928061454618,
        "RAAN(deg)": 34.99957995086025,
        "Satellite Name": "Test1 163",
        "Satellite Number": 163,
        "Semi-Major Axis(m)": 6980739.136638005,
        "Time(s)": 10
    },
    {
        "Altitude(m)": 605322.6773662303,
        "Argument of Periapsis(deg)": 0.0002083789182659281,
        "Eccentricity": 0.0,
        "Inclination(deg)": 60.0,
        "Latitude(deg)": 26.95847152851849,
        "Longitude(deg)": 97.96566949047356,
        "Mean Anomaly(deg)": 148.51291229092362,
        "RAAN(deg)": 34.99915990172051,
        "Satellite Name": "Test1 163",
        "Satellite Number": 163,
        "Semi-Major Axis(m)": 6980739.136638005,
        "Time(s)": 20
    },
    {
        "Altitude(m)": 605251.3761398694,
        "Argument of Periapsis(deg)": 0.00031256837739889213,
        "Eccentricity": 0.0,
        "Inclination(deg)": 60.0,
        "Latitude(deg)": 26.44190519740134,
        "Longitude(deg)": 98.31166570043582,
        "Mean Anomaly(deg)": 149.13301843638547,
        "RAAN(deg)": 34.99873985258077,
        "Satellite Name": "Test1 163",
        "Satellite Number": 163,
        "Semi-Major Axis(m)": 6980739.136638005,
        "Time(s)": 30
    },
    {
        "Altitude(m)": 605181.9881893476,
        "Argument of Periapsis(deg)": 0.0004167578365318562,
        "Eccentricity": 0.0,
        "Inclination(deg)": 60.0,
        "Latitude(deg)": 25.924261219610855,
        "Longitude(deg)": 98.65422126431771,
        "Mean Anomaly(deg)": 149.75312458184732,
        "RAAN(deg)": 34.998319803441035,
        "Satellite Name": "Test1 163",
        "Satellite Number": 163,
        "Semi-Major Axis(m)": 6980739.136638005,
        "Time(s)": 40
    },
    {
        "Altitude(m)": 605114.567704411,
        "Argument of Periapsis(deg)": 0.0005209472956648203,
        "Eccentricity": 0.0,
        "Inclination(deg)": 60.0,
        "Latitude(deg)": 25.4055724215433,
        "Longitude(deg)": 98.99343642327787,
        "Mean Anomaly(deg)": 150.37323072730916,
        "RAAN(deg)": 34.99789975430128,
        "Satellite Name": "Test1 163",
        "Satellite Number": 163,
        "Semi-Major Axis(m)": 6980739.136638005,
        "Time(s)": 50
    },
    {
        "Altitude(m)": 605049.1680893028,
        "Argument of Periapsis(deg)": 0.0006251367547977843,
        "Eccentricity": 0.0,
        "Inclination(deg)": 60.0,
        "Latitude(deg)": 24.885870839289677,
        "Longitude(deg)": 99.32940931030731,
        "Mean Anomaly(deg)": 150.99333687277098,
        "RAAN(deg)": 34.99747970516154,
        "Satellite Name": "Test1 163",
        "Satellite Number": 163,
        "Semi-Major Axis(m)": 6980739.136638005,
        "Time(s)": 60
    },
    {
        "Altitude(m)": 604985.841934485,
        "Argument of Periapsis(deg)": 0.0007293262139307483,
        "Eccentricity": 0.0,
        "Inclination(deg)": 60.0,
        "Latitude(deg)": 24.365187748996423,
        "Longitude(deg)": 99.66223651757025,
        "Mean Anomaly(deg)": 151.6134430182328,
        "RAAN(deg)": 34.9970596560218,
        "Satellite Name": "Test1 163",
        "Satellite Number": 163,
        "Semi-Major Axis(m)": 6980739.136638005,
        "Time(s)": 70
    },
    {
        "Altitude(m)": 604924.6409887265,
        "Argument of Periapsis(deg)": 0.0008335156730637124,
        "Eccentricity": 0.0,
        "Inclination(deg)": 60.0,
        "Latitude(deg)": 23.84355369618672,
        "Longitude(deg)": 99.99201214996565,
        "Mean Anomaly(deg)": 152.23354916369462,
        "RAAN(deg)": 34.996639606882056,
        "Satellite Name": "Test1 163",
        "Satellite Number": 163,
        "Semi-Major Axis(m)": 6980739.136638005,
        "Time(s)": 80
    },
    {
        "Altitude(m)": 604865.6161315332,
        "Argument of Periapsis(deg)": 0.0009377051321966765,
        "Eccentricity": 0.0,
        "Inclination(deg)": 60.0,
        "Latitude(deg)": 23.32099852408073,
        "Longitude(deg)": 100.3188283906174,
        "Mean Anomaly(deg)": 152.85365530915647,
        "RAAN(deg)": 34.996219557742315,
        "Satellite Name": "Test1 163",
        "Satellite Number": 163,
        "Semi-Major Axis(m)": 6980739.136638005,
        "Time(s)": 90
    },
    {
        "Altitude(m)": 604808.8173460112,
        "Argument of Periapsis(deg)": 0.0010418945913296407,
        "Eccentricity": 0.0,
        "Inclination(deg)": 60.0,
        "Latitude(deg)": 22.797551400950137,
        "Longitude(deg)": 100.64277606538984,
        "Mean Anomaly(deg)": 153.47376145461828,
        "RAAN(deg)": 34.99579950860257,
        "Satellite Name": "Test1 163",
        "Satellite Number": 163,
        "Semi-Major Axis(m)": 6980739.136638005,
        "Time(s)": 100
    },
    {
        "Altitude(m)": 604754.2936920683,
        "Argument of Periapsis(deg)": 0.0011460840504626045,
        "Eccentricity": 0.0,
        "Inclination(deg)": 60.0,
        "Latitude(deg)": 22.273240846544354,
        "Longitude(deg)": 100.96394369352717,
        "Mean Anomaly(deg)": 154.09386760008013,
        "RAAN(deg)": 34.99537945946283,
        "Satellite Name": "Test1 163",
        "Satellite Number": 163,
        "Semi-Major Axis(m)": 6980739.136638005,
        "Time(s)": 110
    },
    {
        "Altitude(m)": 604702.0932801019,
        "Argument of Periapsis(deg)": 0.0012502735095955685,
        "Eccentricity": 0.0,
        "Inclination(deg)": 60.0,
        "Latitude(deg)": 21.74809475762242,
        "Longitude(deg)": 101.28241805015045,
        "Mean Anomaly(deg)": 154.71397374554195,
        "RAAN(deg)": 34.99495941032309,
        "Satellite Name": "Test1 163",
        "Satellite Number": 163,
        "Semi-Major Axis(m)": 6980739.136638005,
        "Time(s)": 120
    },
    {
        "Altitude(m)": 604652.2632450579,
        "Argument of Periapsis(deg)": 0.0013544629687285324,
        "Eccentricity": 0.0,
        "Inclination(deg)": 60.0,
        "Latitude(deg)": 21.222140432624784,
        "Longitude(deg)": 101.59828472772502,
        "Mean Anomaly(deg)": 155.33407989100377,
        "RAAN(deg)": 34.99453936118335,
        "Satellite Name": "Test1 163",
        "Satellite Number": 163,
        "Semi-Major Axis(m)": 6980739.136638005,
        "Time(s)": 130
    },
    {
        "Altitude(m)": 604604.8497209501,
        "Argument of Periapsis(deg)": 0.0014586524278614966,
        "Eccentricity": 0.0,
        "Inclination(deg)": 60.0,
        "Latitude(deg)": 20.69540459551948,
        "Longitude(deg)": 101.91162718361723,
        "Mean Anomaly(deg)": 155.95418603646564,
        "RAAN(deg)": 34.99411931204361,
        "Satellite Name": "Test1 163",
        "Satellite Number": 163,
        "Semi-Major Axis(m)": 6980739.136638005,
        "Time(s)": 140
    },
    {
        "Altitude(m)": 604559.8978158557,
        "Argument of Periapsis(deg)": 0.0015628418869944607,
        "Eccentricity": 0.0,
        "Inclination(deg)": 60.0,
        "Latitude(deg)": 20.167913418853548,
        "Longitude(deg)": 102.22252729948853,
        "Mean Anomaly(deg)": 156.5742921819275,
        "RAAN(deg)": 34.99369926290385,
        "Satellite Name": "Test1 163",
        "Satellite Number": 163,
        "Semi-Major Axis(m)": 6980739.136638005,
        "Time(s)": 150
    },
    {
        "Altitude(m)": 604517.4515873491,
        "Argument of Periapsis(deg)": 0.0016670313461274247,
        "Eccentricity": 0.0,
        "Inclination(deg)": 60.0,
        "Latitude(deg)": 19.639692546042337,
        "Longitude(deg)": 102.53106593965398,
        "Mean Anomaly(deg)": 157.19439832738928,
        "RAAN(deg)": 34.99327921376411,
        "Satellite Name": "Test1 163",
        "Satellite Number": 163,
        "Semi-Major Axis(m)": 6980739.136638005,
        "Time(s)": 160
    },
    {
        "Altitude(m)": 604477.5540184558,
        "Argument of Periapsis(deg)": 0.0017712208052603888,
        "Eccentricity": 0.0,
        "Inclination(deg)": 60.0,
        "Latitude(deg)": 19.110767112927427,
        "Longitude(deg)": 102.83732199553751,
        "Mean Anomaly(deg)": 157.8145044728511,
        "RAAN(deg)": 34.99285916462437,
        "Satellite Name": "Test1 163",
        "Satellite Number": 163,
        "Semi-Major Axis(m)": 6980739.136638005,
        "Time(s)": 170
    },
    {
        "Altitude(m)": 604440.2469940523,
        "Argument of Periapsis(deg)": 0.001875410264393353,
        "Eccentricity": 0.0,
        "Inclination(deg)": 60.0,
        "Latitude(deg)": 18.58116176863253,
        "Longitude(deg)": 103.14137294198166,
        "Mean Anomaly(deg)": 158.43461061831295,
        "RAAN(deg)": 34.99243911548463,
        "Satellite Name": "Test1 163",
        "Satellite Number": 163,
        "Semi-Major Axis(m)": 6980739.136638005,
        "Time(s)": 180
    },
    {
        "Altitude(m)": 604405.5712778361,
        "Argument of Periapsis(deg)": 0.0019795997235263173,
        "Eccentricity": 0.0,
        "Inclination(deg)": 60.0,
        "Latitude(deg)": 18.050900695746858,
        "Longitude(deg)": 103.44329539255048,
        "Mean Anomaly(deg)": 159.0547167637748,
        "RAAN(deg)": 34.99201906634489,
        "Satellite Name": "Test1 163",
        "Satellite Number": 163,
        "Semi-Major Axis(m)": 6980739.136638005,
        "Time(s)": 190
    }
]